{
  "links" : {
    "next" : "https://api.nasa.gov/neo/rest/v1/feed?start_date=1996-05-23&end_date=1996-05-23&detailed=true&api_key=t0TVs3DtDT2H8Oy2Zy8m2eVrNsAVKAexjcZXUckd",
    "prev" : "https://api.nasa.gov/neo/rest/v1/feed?start_date=1996-05-21&end_date=1996-05-21&detailed=true&api_key=t0TVs3DtDT2H8Oy2Zy8m2eVrNsAVKAexjcZXUckd",
    "self" : "https://api.nasa.gov/neo/rest/v1/feed?start_date=1996-05-22&end_date=1996-05-22&detailed=true&api_key=t0TVs3DtDT2H8Oy2Zy8m2eVrNsAVKAexjcZXUckd"
  },
  "element_count" : 1,
  "near_earth_objects" : {
    "1996-05-22" : [ {
      "links" : {
        "self" : "https://api.nasa.gov/neo/rest/v1/neo/2433953?api_key=t0TVs3DtDT2H8Oy2Zy8m2eVrNsAVKAexjcZXUckd"
      },
      "neo_reference_id" : "2433953",
      "name" : "433953 (1997 XR2)",
      "nasa_jpl_url" : "http://ssd.jpl.nasa.gov/sbdb.cgi?sstr=2433953",
      "absolute_magnitude_h" : 20.8,
      "estimated_diameter" : {
        "kilometers" : {
          "estimated_diameter_min" : 0.1838886721,
          "estimated_diameter_max" : 0.411187571
        },
        "meters" : {
          "estimated_diameter_min" : 183.8886720703,
          "estimated_diameter_max" : 411.1875710413
        },
        "miles" : {
          "estimated_diameter_min" : 0.1142630881,
          "estimated_diameter_max" : 0.2555000322
        },
        "feet" : {
          "estimated_diameter_min" : 603.309310875,
          "estimated_diameter_max" : 1349.040630575
        }
      },
      "is_potentially_hazardous_asteroid" : true,
      "close_approach_data" : [ {
        "close_approach_date" : "1996-05-22",
        "epoch_date_close_approach" : 832748400000,
        "relative_velocity" : {
          "kilometers_per_second" : "11.9123056662",
          "kilometers_per_hour" : "42884.3003981796",
          "miles_per_hour" : "26646.6365446355"
        },
        "miss_distance" : {
          "astronomical" : "0.1760416963",
          "lunar" : "68.48021698",
          "kilometers" : "26335462",
          "miles" : "16364098"
        },
        "orbiting_body" : "Earth"
      } ],
      "orbital_data" : {
        "orbit_id" : "77",
        "orbit_determination_date" : "2017-09-26 06:51:51",
        "orbit_uncertainty" : "0",
        "minimum_orbit_intersection" : ".000135863",
        "jupiter_tisserand_invariant" : "5.719",
        "epoch_osculation" : "2458000.5",
        "eccentricity" : ".2008474662273823",
        "semi_major_axis" : "1.076207967429487",
        "inclination" : "7.191869414357382",
        "ascending_node_longitude" : "250.6909120294943",
        "orbital_period" : "407.795783743418",
        "perihelion_distance" : ".8600543240375536",
        "perihelion_argument" : "84.60446236258967",
        "aphelion_distance" : "1.292361610821421",
        "perihelion_time" : "2458050.122567627044",
        "mean_anomaly" : "316.193455013807",
        "mean_motion" : ".8827948064968451",
        "equinox" : "J2000"
      }
    } ]
  }
}